IRIDIUM 119             
1 42959U 17061E   24047.95077115  .00000044  00000+0  87665-5 0  9990
2 42959  86.3986  20.9636 0001969  83.9527 276.1893 14.34217637332806
IRIDIUM 107             
1 42960U 17061F   24047.90002718  .00000079  00000+0  21240-4 0  9998
2 42960  86.3985  21.0009 0002006  93.7614 266.3812 14.34214106332802
IRIDIUM 132             
1 42961U 17061G   24047.90637149 -.00000100  00000+0 -42629-4 0  9992
2 42961  86.3982  20.9840 0001832  91.2686 268.8720 14.34214707332801
IRIDIUM 136             
1 42962U 17061H   24048.21715374  .00000548  00000+0  18873-3 0  9992
2 42962  86.3997  20.8579 0002509  89.6572 270.4911 14.34213476332862
IRIDIUM 139             
1 42963U 17061J   24047.94442376  .00000098  00000+0  27888-4 0  9998
2 42963  86.3988  21.0188 0002039  91.7280 268.4149 14.34215550332832
IRIDIUM 125             
1 42964U 17061K   24048.42011459  .00000606  00000+0  20923-3 0  9994
2 42964  86.3992  20.8648 0001854  82.2761 277.8645 14.34216344332915
IRIDIUM 135             
1 43070U 17083A   24047.83609524  .00000540  00000+0  18558-3 0  9995
2 43070  86.3994 317.8313 0002340  89.8330 270.3134 14.34221969322122
IRIDIUM 138             
1 43071U 17083B   24048.48938736  .00000003  00000+0 -59784-5 0  9991
2 43071  86.3981 317.2907 0001715  79.2952 280.8436 14.34217485322208
